OPTICUBE 04             
1 41851U 16067D   17345.78824700  .00000459  00000-0  45579-4 0  9997
2 41851  97.9372  66.4248 0010514  72.5529 287.6840 14.96595974 59063
